[{"OBJECT_NAME":"YAOGAN-33 04","OBJECT_ID":"2023-149A","EPOCH":"2026-03-10T00:08:02.588928","MEAN_MOTION":14.58624687,"ECCENTRICITY":0.00010375,"INCLINATION":98.1869,"RA_OF_ASC_NODE":19.7732,"ARG_OF_PERICENTER":50.2829,"MEAN_ANOMALY":309.8461,"EPHEMERIS_TYPE":0,"CLASSIFICATION_TYPE":"U","NORAD_CAT_ID":57958,"ELEMENT_SET_NO":999,"REV_AT_EPOCH":13054,"BSTAR":0.00018482829,"MEAN_MOTION_DOT":8.15e-6,"MEAN_MOTION_DDOT":0},{"OBJECT_NAME":"IRIDIUM 33 DEB","OBJECT_ID":"1997-051ABX","EPOCH":"2026-03-05T15:09:14.031360","MEAN_MOTION":14.61027741,"ECCENTRICITY":0.0020944,"INCLINATION":86.333,"RA_OF_ASC_NODE":303.9282,"ARG_OF_PERICENTER":47.4459,"MEAN_ANOMALY":342.3534,"EPHEMERIS_TYPE":0,"CLASSIFICATION_TYPE":"U","NORAD_CAT_ID":46965,"ELEMENT_SET_NO":999,"REV_AT_EPOCH":63478,"BSTAR":0.00082387,"MEAN_MOTION_DOT":4.076e-5,"MEAN_MOTION_DDOT":0}]
